DTUSAT                  
1 27842U 03031C   08347.50977030  .00000015  00000-0  27272-4 0  4404
2 27842  98.7092 354.2972 0008987 306.1182  53.9173 14.20958287282832
CUTE-1 (CO-55)          
1 27844U 03031E   08346.71571763  .00000032  00000-0  35207-4 0  4621
2 27844  98.7157 352.5210 0009702 329.7519  30.3102 14.20611338282646
QUAKESAT                
1 27845U 03031F   08347.17996106  .00000081  00000-0  58617-4 0  4405
2 27845  98.7209 352.3632 0009023 345.2230  14.8685 14.20236722282621
AAU CUBESAT             
1 27846U 03031G   08347.50942063  .00000024  00000-0  31342-4 0  3790
2 27846  98.7089 354.2909 0008884 305.2789  54.7547 14.20959131282834
CANX-1                  
1 27847U 03031H   08347.02289082  .00000029  00000-0  33394-4 0  3922
2 27847  98.7084 353.8051 0008921 307.1318  52.9072 14.20943467282719
CUBESAT XI-IV (CO-57)   
1 27848U 03031J   08347.51266158  .00000025  00000-0  31918-4 0  4125
2 27848  98.7167 352.3760 0009708 330.2170  29.8472 14.20417548282724
UWE-1                   
1 28892U 05043C   08348.27321625  .00000125  00000-0  35738-4 0  2140
2 28892  98.0762 237.4085 0017007 206.4984 153.5369 14.59688068166729
CUBESAT XI-V (CO-58)    
1 28895U 05043F   08343.71249886  .00000050  00000-0  20076-4 0  1870
2 28895  98.0789 233.4047 0017045 221.9612 138.0262 14.59722200165947
NCUBE-2                 
1 28897U 05043H   08347.15189180  .00000125  00000-0  35675-4 0  7212
2 28897  98.0768 236.6736 0016550 212.0028 148.0181 14.59898198158738
CUTE-1.7+APD (CO-56)    
1 28941U 06005C   08347.94051758  .00036260  28357-5  20739-3 0  6310
2 28941  98.1221 124.5914 0133379 107.1494 254.4371 15.67439527157937
GENESAT-1               
1 29655U 06058C   08347.88464787  .00009043  00000-0  10496-3 0  5849
2 29655  40.0271 267.1323 0003658 340.5124  19.5533 15.61669971113303
CSTB1                   
1 31122U 07012F   08347.39304929  .00000553  00000-0  13192-3 0  5077
2 31122  98.0227  46.1765 0086506 134.5075 226.3231 14.55189737 87990
MAST                    
1 31126U 07012K   08347.61315904  .00000183  00000-0  51703-4 0  4788
2 31126  98.0171  44.7029 0095445 138.3780 222.4852 14.53465112 87938
LIBERTAD-1              
1 31128U 07012M   08348.09419123 -.00000046  00000-0  00000+0 0  5050
2 31128  98.0182  43.7549 0103411 141.0703 219.7992 14.52000433 87896
POLYSAT CP3             
1 31129U 07012N   08348.05750753  .00000061  00000-0  24571-4 0  5425
2 31129  98.0200  43.7935 0103194 140.9796 219.8899 14.52088911 87877
CAPE1                   
1 31130U 07012P   08347.39789057  .00000202  00000-0  57175-4 0  4750
2 31130  98.0196  43.1010 0103417 143.1704 217.6656 14.52015758 87587
POLYSAT CP4             
1 31132U 07012Q   08347.39322926  .00000220  00000-0  58683-4 0  4812
2 31132  98.0223  46.1364 0086571 134.3066 226.5263 14.55166506 87864
NTS (CANX-6)            
1 32784U 08021B   08348.17938489 -.00000030  00000-0  30790-5 0  2347
2 32784  97.9748  47.3387 0014905 271.0319  88.9185 14.80996373 33896
CUTE-1.7+APD II         
1 32785U 08021C   08347.37089948  .00000129  00000-0  23318-4 0  2341
2 32785  97.9729  46.6365 0013754 279.5304  80.4351 14.81425837 33785
COMPASS-1               
1 32787U 08021E   08347.22585360  .00000350  00000-0  51432-4 0  2249
2 32787  97.9691  46.3973 0014815 281.8151  78.1397 14.81513891 33762
AAUSAT-II               
1 32788U 08021F   08347.81665713  .00000450  00000-0  63973-4 0  2251
2 32788  97.9694  47.0149 0014281 280.1492  79.8104 14.81629565 33856
DELFI-C3                
1 32789U 08021G   08348.17056688  .00000317  00000-0  47258-4 0  2369
2 32789  97.9729  47.4314 0014715 276.8706  83.0830 14.81558390 33902
CANX-2                  
1 32790U 08021H   08348.18243107  .00000122  00000-0  22447-4 0  2228
2 32790  97.9734  47.4325 0014021 276.2409  83.7207 14.81414437 33881
SEEDS II                
1 32791U 08021J   08347.72099553 -.00000024  00000-0  38332-5 0  2179
2 32791  97.9720  46.9149 0015073 277.2766  82.6719 14.81357429 33805
PSLV DEB                
1 32797U 08021L   08346.62892395  .00000255  00000-0  32528-4 0  1194
2 32797  97.9713  45.8859 0014520 282.7039  77.3057 14.81414935 32361
